{
    "links": {
        "self": "http://www.neowsapp.com/rest/v1/neo/3662635?api_key=iIulBulltgU6a56xZRHN4H3l9WmuAYTsLGpBGhQ2"
    },
    "id": "3662635",
    "neo_reference_id": "3662635",
    "name": "(2014 DK23)",
    "designation": "2014 DK23",
    "nasa_jpl_url": "http://ssd.jpl.nasa.gov/sbdb.cgi?sstr=3662635",
    "absolute_magnitude_h": 27.2,
    "estimated_diameter": {
        "kilometers": {
            "estimated_diameter_min": 0.0096506147,
            "estimated_diameter_max": 0.0215794305
        },
        "meters": {
            "estimated_diameter_min": 9.6506146958,
            "estimated_diameter_max": 21.5794304844
        },
        "miles": {
            "estimated_diameter_min": 0.0059966121,
            "estimated_diameter_max": 0.0134088323
        },
        "feet": {
            "estimated_diameter_min": 31.6621227185,
            "estimated_diameter_max": 70.7986587106
        }
    },
    "is_potentially_hazardous_asteroid": false,
    "close_approach_data": [
        {
            "close_approach_date": "2014-02-24",
            "close_approach_date_full": "2014-Feb-24 07:52",
            "epoch_date_close_approach": 1393228320000,
            "relative_velocity": {
                "kilometers_per_second": "7.9255233592",
                "kilometers_per_hour": "28531.8840931393",
                "miles_per_hour": "17728.6032022065"
            },
            "miss_distance": {
                "astronomical": "0.0072872899",
                "lunar": "2.8347557711",
                "kilometers": "1090163.047112513",
                "miles": "677395.9062101594"
            },
            "orbiting_body": "Earth"
        },
        {
            "close_approach_date": "2014-02-24",
            "close_approach_date_full": "2014-Feb-24 09:59",
            "epoch_date_close_approach": 1393235940000,
            "relative_velocity": {
                "kilometers_per_second": "8.9523263942",
                "kilometers_per_hour": "32228.3750190066",
                "miles_per_hour": "20025.4589111155"
            },
            "miss_distance": {
                "astronomical": "0.0094138583",
                "lunar": "3.6619908787",
                "kilometers": "1408293.150161821",
                "miles": "875072.7858462898"
            },
            "orbiting_body": "Moon"
        }
    ],
    "orbital_data": {
        "orbit_id": "7",
        "orbit_determination_date": "2017-04-06 08:42:17",
        "first_observation_date": "2014-02-27",
        "last_observation_date": "2014-03-07",
        "data_arc_in_days": 8,
        "observations_used": 21,
        "orbit_uncertainty": "8",
        "minimum_orbit_intersection": ".00447535",
        "jupiter_tisserand_invariant": "4.055",
        "epoch_osculation": "2456719.5",
        "eccentricity": ".4512309687123273",
        "semi_major_axis": "1.716985909215354",
        "inclination": "1.45199828867824",
        "ascending_node_longitude": "164.11785333",
        "orbital_period": "821.7666713178513",
        "perihelion_distance": ".9422286941346939",
        "perihelion_argument": "317.4328480181304",
        "aphelion_distance": "2.491743124296014",
        "perihelion_time": "2456685.986900334699",
        "mean_anomaly": "14.68143732351716",
        "mean_motion": ".4380805556675534",
        "equinox": "J2000",
        "orbit_class": {
            "orbit_class_type": "APO",
            "orbit_class_description": "Near-Earth asteroid orbits which cross the Earth’s orbit similar to that of 1862 Apollo",
            "orbit_class_range": "a (semi-major axis) > 1.0 AU; q (perihelion) < 1.017 AU"
        }
    },
    "is_sentry_object": false
}